[{"OBJECT_NAME":"ONEWEB-0375","OBJECT_ID":"2021-090Y","EPOCH":"2025-08-04T08:39:32.261184","MEAN_MOTION":13.20771634,"ECCENTRICITY":0.00021,"INCLINATION":87.9291,"RA_OF_ASC_NODE":337.5638,"ARG_OF_PERICENTER":116.148,"MEAN_ANOMALY":243.987,"EPHEMERIS_TYPE":0,"CLASSIFICATION_TYPE":"U","NORAD_CAT_ID":49301,"ELEMENT_SET_NO":999,"REV_AT_EPOCH":18870,"BSTAR":0.00026005,"MEAN_MOTION_DOT":1.19e-6,"MEAN_MOTION_DDOT":0},{"OBJECT_NAME":"ONEWEB-0376","OBJECT_ID":"2021-090Z","EPOCH":"2025-08-04T10:13:02.913888","MEAN_MOTION":13.1972521,"ECCENTRICITY":0.0001938,"INCLINATION":87.9239,"RA_OF_ASC_NODE":7.9152,"ARG_OF_PERICENTER":87.8501,"MEAN_ANOMALY":272.2854,"EPHEMERIS_TYPE":0,"CLASSIFICATION_TYPE":"U","NORAD_CAT_ID":49302,"ELEMENT_SET_NO":999,"REV_AT_EPOCH":18467,"BSTAR":0.0001263,"MEAN_MOTION_DOT":6.4e-7,"MEAN_MOTION_DDOT":0},{"OBJECT_NAME":"ONEWEB-0377","OBJECT_ID":"2021-090AA","EPOCH":"2025-08-04T10:08:20.891328","MEAN_MOTION":13.20770151,"ECCENTRICITY":0.0001698,"INCLINATION":87.9295,"RA_OF_ASC_NODE":337.5452,"ARG_OF_PERICENTER":103.2432,"MEAN_ANOMALY":256.889,"EPHEMERIS_TYPE":0,"CLASSIFICATION_TYPE":"U","NORAD_CAT_ID":49303,"ELEMENT_SET_NO":999,"REV_AT_EPOCH":18870,"BSTAR":8.8746e-5,"MEAN_MOTION_DOT":4.9e-7,"MEAN_MOTION_DDOT":0},{"OBJECT_NAME":"ONEWEB-0378","OBJECT_ID":"2021-090AB","EPOCH":"2025-08-04T14:18:21.460608","MEAN_MOTION":13.20772242,"ECCENTRICITY":0.0001963,"INCLINATION":87.9305,"RA_OF_ASC_NODE":337.5206,"ARG_OF_PERICENTER":102.0668,"MEAN_ANOMALY":258.0685,"EPHEMERIS_TYPE":0,"CLASSIFICATION_TYPE":"U","NORAD_CAT_ID":49304,"ELEMENT_SET_NO":999,"REV_AT_EPOCH":18799,"BSTAR":0.00028048,"MEAN_MOTION_DOT":1.27e-6,"MEAN_MOTION_DDOT":0},{"OBJECT_NAME":"ONEWEB-0379","OBJECT_ID":"2021-090AC","EPOCH":"2025-08-04T14:47:20.625216","MEAN_MOTION":13.1450254,"ECCENTRICITY":0.0001973,"INCLINATION":87.9075,"RA_OF_ASC_NODE":352.7001,"ARG_OF_PERICENTER":97.5168,"MEAN_ANOMALY":262.6186,"EPHEMERIS_TYPE":0,"CLASSIFICATION_TYPE":"U","NORAD_CAT_ID":49305,"ELEMENT_SET_NO":999,"REV_AT_EPOCH":18597,"BSTAR":-0.00038924,"MEAN_MOTION_DOT":-1.32e-6,"MEAN_MOTION_DDOT":0},{"OBJECT_NAME":"ONEWEB-0380","OBJECT_ID":"2021-090AD","EPOCH":"2025-08-04T10:08:28.677696","MEAN_MOTION":13.19727597,"ECCENTRICITY":0.000173,"INCLINATION":87.9236,"RA_OF_ASC_NODE":7.9446,"ARG_OF_PERICENTER":100.7928,"MEAN_ANOMALY":259.34,"EPHEMERIS_TYPE":0,"CLASSIFICATION_TYPE":"U","NORAD_CAT_ID":49306,"ELEMENT_SET_NO":999,"REV_AT_EPOCH":18464,"BSTAR":-1.7618e-5,"MEAN_MOTION_DOT":6.0e-8,"MEAN_MOTION_DDOT":0},{"OBJECT_NAME":"ONEWEB-0381","OBJECT_ID":"2021-090AE","EPOCH":"2025-08-04T08:14:30.587712","MEAN_MOTION":13.20770286,"ECCENTRICITY":0.0001971,"INCLINATION":87.9301,"RA_OF_ASC_NODE":337.57,"ARG_OF_PERICENTER":107.6828,"MEAN_ANOMALY":252.452,"EPHEMERIS_TYPE":0,"CLASSIFICATION_TYPE":"U","NORAD_CAT_ID":49307,"ELEMENT_SET_NO":999,"REV_AT_EPOCH":18800,"BSTAR":-5.9856e-6,"MEAN_MOTION_DOT":1.1e-7,"MEAN_MOTION_DDOT":0},{"OBJECT_NAME":"ONEWEB-0382","OBJECT_ID":"2021-090AF","EPOCH":"2025-08-04T15:12:42.297696","MEAN_MOTION":13.20771928,"ECCENTRICITY":0.0002126,"INCLINATION":87.9293,"RA_OF_ASC_NODE":337.5047,"ARG_OF_PERICENTER":106.4382,"MEAN_ANOMALY":253.6985,"EPHEMERIS_TYPE":0,"CLASSIFICATION_TYPE":"U","NORAD_CAT_ID":49308,"ELEMENT_SET_NO":999,"REV_AT_EPOCH":18803,"BSTAR":9.0873e-5,"MEAN_MOTION_DOT":5.0e-7,"MEAN_MOTION_DDOT":0},{"OBJECT_NAME":"ONEWEB-0383","OBJECT_ID":"2021-090AG","EPOCH":"2025-08-04T14:38:13.737408","MEAN_MOTION":13.14502331,"ECCENTRICITY":0.0002025,"INCLINATION":87.9074,"RA_OF_ASC_NODE":352.6809,"ARG_OF_PERICENTER":98.5955,"MEAN_ANOMALY":261.5405,"EPHEMERIS_TYPE":0,"CLASSIFICATION_TYPE":"U","NORAD_CAT_ID":49309,"ELEMENT_SET_NO":999,"REV_AT_EPOCH":18600,"BSTAR":0.00039725,"MEAN_MOTION_DOT":1.6e-6,"MEAN_MOTION_DDOT":0},{"OBJECT_NAME":"ONEWEB-0384","OBJECT_ID":"2021-090AH","EPOCH":"2025-08-04T15:06:17.459136","MEAN_MOTION":13.2078758,"ECCENTRICITY":0.0002364,"INCLINATION":87.9305,"RA_OF_ASC_NODE":337.5252,"ARG_OF_PERICENTER":108.2168,"MEAN_ANOMALY":251.9223,"EPHEMERIS_TYPE":0,"CLASSIFICATION_TYPE":"U","NORAD_CAT_ID":49310,"ELEMENT_SET_NO":999,"REV_AT_EPOCH":18804,"BSTAR":4.7051e-6,"MEAN_MOTION_DOT":1.5e-7,"MEAN_MOTION_DDOT":0},{"OBJECT_NAME":"ONEWEB-0385","OBJECT_ID":"2021-090AJ","EPOCH":"2025-08-04T15:01:19.572672","MEAN_MOTION":13.20770094,"ECCENTRICITY":0.0001972,"INCLINATION":87.9284,"RA_OF_ASC_NODE":337.5213,"ARG_OF_PERICENTER":102.1568,"MEAN_ANOMALY":257.9787,"EPHEMERIS_TYPE":0,"CLASSIFICATION_TYPE":"U","NORAD_CAT_ID":49311,"ELEMENT_SET_NO":999,"REV_AT_EPOCH":18801,"BSTAR":8.2325e-5,"MEAN_MOTION_DOT":4.6e-7,"MEAN_MOTION_DDOT":0},{"OBJECT_NAME":"ONEWEB-0386","OBJECT_ID":"2021-090AK","EPOCH":"2025-08-04T08:09:57.887712","MEAN_MOTION":13.2077026,"ECCENTRICITY":0.0002117,"INCLINATION":87.9292,"RA_OF_ASC_NODE":337.5498,"ARG_OF_PERICENTER":103.8584,"MEAN_ANOMALY":256.2785,"EPHEMERIS_TYPE":0,"CLASSIFICATION_TYPE":"U","NORAD_CAT_ID":49312,"ELEMENT_SET_NO":999,"REV_AT_EPOCH":18799,"BSTAR":0.00016153,"MEAN_MOTION_DOT":7.9e-7,"MEAN_MOTION_DDOT":0},{"OBJECT_NAME":"ONEWEB-0387","OBJECT_ID":"2021-090AL","EPOCH":"2025-08-04T15:03:37.393632","MEAN_MOTION":13.20771943,"ECCENTRICITY":0.0001828,"INCLINATION":87.9283,"RA_OF_ASC_NODE":337.55,"ARG_OF_PERICENTER":108.6684,"MEAN_ANOMALY":251.4648,"EPHEMERIS_TYPE":0,"CLASSIFICATION_TYPE":"U","NORAD_CAT_ID":49313,"ELEMENT_SET_NO":999,"REV_AT_EPOCH":18803,"BSTAR":-1.8046e-5,"MEAN_MOTION_DOT":6.0e-8,"MEAN_MOTION_DDOT":0},{"OBJECT_NAME":"ONEWEB-0388","OBJECT_ID":"2021-090AM","EPOCH":"2025-08-04T15:29:11.338368","MEAN_MOTION":13.19724148,"ECCENTRICITY":0.0001929,"INCLINATION":87.924,"RA_OF_ASC_NODE":7.9065,"ARG_OF_PERICENTER":98.1009,"MEAN_ANOMALY":262.0343,"EPHEMERIS_TYPE":0,"CLASSIFICATION_TYPE":"U","NORAD_CAT_ID":49314,"ELEMENT_SET_NO":999,"REV_AT_EPOCH":18466,"BSTAR":-4.0895e-5,"MEAN_MOTION_DOT":-3.0e-8,"MEAN_MOTION_DDOT":0},{"OBJECT_NAME":"ONEWEB-0389","OBJECT_ID":"2021-132A","EPOCH":"2025-08-04T13:04:37.993152","MEAN_MOTION":13.1764989,"ECCENTRICITY":0.0001686,"INCLINATION":87.9039,"RA_OF_ASC_NODE":68.8888,"ARG_OF_PERICENTER":99.5261,"MEAN_ANOMALY":260.6061,"EPHEMERIS_TYPE":0,"CLASSIFICATION_TYPE":"U","NORAD_CAT_ID":50469,"ELEMENT_SET_NO":999,"REV_AT_EPOCH":17638,"BSTAR":-0.00013395,"MEAN_MOTION_DOT":-3.9e-7,"MEAN_MOTION_DDOT":0},{"OBJECT_NAME":"ONEWEB-0390","OBJECT_ID":"2021-132B","EPOCH":"2025-08-04T13:07:03.623808","MEAN_MOTION":13.1764954,"ECCENTRICITY":0.0001508,"INCLINATION":87.9033,"RA_OF_ASC_NODE":68.8954,"ARG_OF_PERICENTER":80.7314,"MEAN_ANOMALY":279.3988,"EPHEMERIS_TYPE":0,"CLASSIFICATION_TYPE":"U","NORAD_CAT_ID":50470,"ELEMENT_SET_NO":999,"REV_AT_EPOCH":17638,"BSTAR":4.2991e-5,"MEAN_MOTION_DOT":3.0e-7,"MEAN_MOTION_DDOT":0},{"OBJECT_NAME":"ONEWEB-0391","OBJECT_ID":"2021-132C","EPOCH":"2025-08-04T07:41:26.829888","MEAN_MOTION":13.17647616,"ECCENTRICITY":0.0001353,"INCLINATION":87.9032,"RA_OF_ASC_NODE":68.9549,"ARG_OF_PERICENTER":113.6145,"MEAN_ANOMALY":246.5129,"EPHEMERIS_TYPE":0,"CLASSIFICATION_TYPE":"U","NORAD_CAT_ID":50471,"ELEMENT_SET_NO":999,"REV_AT_EPOCH":17635,"BSTAR":9.6474e-5,"MEAN_MOTION_DOT":5.0e-7,"MEAN_MOTION_DDOT":0}]
