ONEWEB-0375             
1 49301U 21090Y   25216.36079006  .00000119  00000+0  26005-3 0  9992
2 49301  87.9291 337.5638 0002100 116.1480 243.9870 13.20771634188705
ONEWEB-0376             
1 49302U 21090Z   25216.42572817  .00000064  00000+0  12630-3 0  9996
2 49302  87.9239   7.9152 0001938  87.8501 272.2854 13.19725210184679
ONEWEB-0377             
1 49303U 21090AA  25216.42246402  .00000049  00000+0  88746-4 0  9990
2 49303  87.9295 337.5452 0001698 103.2432 256.8890 13.20770151188708
ONEWEB-0378             
1 49304U 21090AB  25216.59608172  .00000127  00000+0  28048-3 0  9990
2 49304  87.9305 337.5206 0001963 102.0668 258.0685 13.20772242187990
ONEWEB-0379             
1 49305U 21090AC  25216.61621094 -.00000132  00000+0 -38924-3 0  9994
2 49305  87.9075 352.7001 0001973  97.5168 262.6186 13.14502540185979
ONEWEB-0380             
1 49306U 21090AD  25216.42255414  .00000006  00000+0 -17618-4 0  9990
2 49306  87.9236   7.9446 0001730 100.7928 259.3400 13.19727597184644
ONEWEB-0381             
1 49307U 21090AE  25216.34340958  .00000011  00000+0 -59856-5 0  9997
2 49307  87.9301 337.5700 0001971 107.6828 252.4520 13.20770286188001
ONEWEB-0382             
1 49308U 21090AF  25216.63382289  .00000050  00000+0  90873-4 0  9998
2 49308  87.9293 337.5047 0002126 106.4382 253.6985 13.20771928188036
ONEWEB-0383             
1 49309U 21090AG  25216.60988122  .00000160  00000+0  39725-3 0  9994
2 49309  87.9074 352.6809 0002025  98.5955 261.5405 13.14502331186006
ONEWEB-0384             
1 49310U 21090AH  25216.62936874  .00000015  00000+0  47051-5 0  9997
2 49310  87.9305 337.5252 0002364 108.2168 251.9223 13.20787580188045
ONEWEB-0385             
1 49311U 21090AJ  25216.62592098  .00000046  00000+0  82325-4 0  9990
2 49311  87.9284 337.5213 0001972 102.1568 257.9787 13.20770094188010
ONEWEB-0386             
1 49312U 21090AK  25216.34025333  .00000079  00000+0  16153-3 0  9994
2 49312  87.9292 337.5498 0002117 103.8584 256.2785 13.20770260187994
ONEWEB-0387             
1 49313U 21090AL  25216.62751613  .00000006  00000+0 -18046-4 0  9998
2 49313  87.9283 337.5500 0001828 108.6684 251.4648 13.20771943188031
ONEWEB-0388             
1 49314U 21090AM  25216.64527012 -.00000003  00000+0 -40895-4 0  9990
2 49314  87.9240   7.9065 0001929  98.1009 262.0343 13.19724148184663
ONEWEB-0389             
1 50469U 21132A   25216.54488418 -.00000039  00000+0 -13395-3 0  9998
2 50469  87.9039  68.8888 0001686  99.5261 260.6061 13.17649890176385
ONEWEB-0390             
1 50470U 21132B   25216.54656972  .00000030  00000+0  42991-4 0  9996
2 50470  87.9033  68.8954 0001508  80.7314 279.3988 13.17649540176386
ONEWEB-0391             
1 50471U 21132C   25216.32044942  .00000050  00000+0  96474-4 0  9998
2 50471  87.9032  68.9549 0001353 113.6145 246.5129 13.17647616176355
